STARLINK-31424          
1 59247U 24049S   26068.28066430  .00001284  00000+0  56209-4 0  9997
2 59247  43.0004 142.3688 0001602 293.1719  66.8964 15.27569142112378
NUSAT-48 (HENRIETTA LE*)
1 60498U 24149AG  26068.80506098  .00012988  00000+0  45212-3 0  9999
2 60498  97.3923 150.8264 0002754 263.3026  96.7901 15.29812597 86946
